NORAD_CAT_ID,OBJECT_NAME,OBJECT_TYPE,EPOCH,MEAN_MOTION,ECCENTRICITY,INCLINATION,RA_OF_ASC_NODE,ARG_OF_PERICENTER,MEAN_ANOMALY,BSTAR,MEAN_MOTION_DOT,MEAN_MOTION_DDOT,TLE_LINE0,TLE_LINE1,TLE_LINE2,SEMIMAJOR_AXIS,PERIOD,APOGEE,PERIGEE,DECAYED
52659.0,STARLINK-3960,PAYLOAD,2023-06-19 08:47:15,15.08832589,0.0001176,53.2181,297.8097,65.3224,294.789,0.00026369,3.91e-05,0.0,0 STARLINK-3960,1 52659U 22053D   23170.36615016  .00003910  00000-0  26369-3 0  9992,2 52659  53.2181 297.8097 0001176  65.3224 294.7890 15.08832589 61126,6917.903,95.438,540.582,538.954,0.0
52659.0,STARLINK-3960,PAYLOAD,2023-06-19 19:54:56,15.08848756,0.0001167,53.2182,295.7289,59.1783,300.9324,0.000271,4.029e-05,0.0,0 STARLINK-3960,1 52659U 22053D   23170.82982141  .00004029  00000-0  27100-3 0  9995,2 52659  53.2182 295.7289 0001167  59.1783 300.9324 15.08848756 61190,6917.854,95.437,540.526,538.911,0.0
52659.0,STARLINK-3960,PAYLOAD,2023-06-20 08:38:02,15.08834651,0.0001036,53.2179,293.3504,63.859,296.2509,-0.00012767,-2.319e-05,0.0,0 STARLINK-3960,1 52659U 22053D   23171.35975366 -.00002319  00000-0 -12767-3 0  9990,2 52659  53.2179 293.3504 0001036  63.8590 296.2509 15.08834651 61273,6917.897,95.438,540.478,539.045,0.0
52659.0,STARLINK-3960,PAYLOAD,2023-06-20 16:34:57,15.08842579,0.0001335,53.2169,291.8629,69.7731,290.3405,-3.898e-05,-9.08e-06,0.0,0 STARLINK-3960,1 52659U 22053D   23171.69094882 -.00000908  00000-0 -38980-4 0  9990,2 52659  53.2169 291.8629 0001335  69.7731 290.3405 15.08842579 61321,6917.873,95.437,540.661,538.814,0.0
52659.0,STARLINK-3960,PAYLOAD,2023-06-21 13:14:58,15.08841806,0.000117,53.2167,287.9983,68.4133,291.6984,2.9799e-05,1.86e-06,0.0,0 STARLINK-3960,1 52659U 22053D   23172.55207085  .00000186  00000-0  29799-4 0  9991,2 52659  53.2167 287.9983 0001170  68.4133 291.6984 15.08841806 61448,6917.875,95.437,540.549,538.93,0.0
52659.0,STARLINK-3960,PAYLOAD,2023-06-21 14:50:21,15.08843572,0.0001077,53.2176,287.7021,69.6929,290.4179,5.4027e-05,5.72e-06,0.0,0 STARLINK-3960,1 52659U 22053D   23172.61830863  .00000572  00000-0  54027-4 0  9995,2 52659  53.2176 287.7021 0001077  69.6929 290.4179 15.08843572 61457,6917.869,95.437,540.48,538.989,0.0
52659.0,STARLINK-3960,PAYLOAD,2023-06-22 00:22:40,15.08844478,8.4e-05,53.2156,285.9178,76.1289,283.9796,-4.3537e-05,-9.81e-06,0.0,0 STARLINK-3960,1 52659U 22053D   23173.01574814 -.00000981  00000-0 -43537-4 0  9991,2 52659  53.2156 285.9178 0000840  76.1289 283.9796 15.08844478 61523,6917.867,95.437,540.313,539.151,0.0
52659.0,STARLINK-3960,PAYLOAD,2023-06-22 14:41:09,15.0883696,0.0001335,53.2148,283.2423,98.9392,261.1751,3.8958e-05,3.32e-06,0.0,0 STARLINK-3960,1 52659U 22053D   23173.61191549  .00000332  00000-0  38958-4 0  9996,2 52659  53.2148 283.2423 0001335  98.9392 261.1751 15.08836960 61611,6917.89,95.438,540.678,538.831,0.0
52659.0,STARLINK-3960,PAYLOAD,2023-06-23 16:07:18,15.08852857,9.08e-05,53.2164,278.4819,83.8902,276.2193,0.00017578,2.512e-05,0.0,0 STARLINK-3960,1 52659U 22053D   23174.67174266  .00002512  00000-0  17578-3 0  9996,2 52659  53.2164 278.4819 0000908  83.8902 276.2193 15.08852857 61776,6917.841,95.437,540.334,539.078,0.0
52659.0,STARLINK-3960,PAYLOAD,2023-06-24 00:04:15,15.08829097,2.45e-05,53.2159,276.9985,154.137,205.9634,-9.5022e-05,-1.799e-05,0.0,0 STARLINK-3960,1 52659U 22053D   23175.00295474 -.00001799  00000-0 -95022-4 0  9998,2 52659  53.2159 276.9985 0000245 154.1370 205.9634 15.08829097 61827,6917.914,95.438,539.948,539.609,0.0
52659.0,STARLINK-3960,PAYLOAD,2023-06-24 14:22:43,15.08845669,0.0001007,53.2152,274.3187,84.9146,275.1961,0.00011691,1.574e-05,0.0,0 STARLINK-3960,1 52659U 22053D   23175.59911007  .00001574  00000-0  11691-3 0  9997,2 52659  53.2152 274.3187 0001007  84.9146 275.1961 15.08845669 61919,6917.863,95.437,540.425,539.031,0.0
52659.0,STARLINK-3960,PAYLOAD,2023-06-25 15:48:52,15.08852434,0.0001063,53.2159,269.5594,101.9826,258.1285,0.00014685,2.051e-05,0.0,0 STARLINK-3960,1 52659U 22053D   23176.65894621  .00002051  00000-0  14685-3 0  9994,2 52659  53.2159 269.5594 0001063 101.9826 258.1285 15.08852434 62077,6917.842,95.437,540.443,538.972,0.0
52659.0,STARLINK-3960,PAYLOAD,2023-06-25 23:45:49,15.08829806,0.0001268,53.2145,268.0749,79.3871,280.7264,-0.00013027,-2.36e-05,0.0,0 STARLINK-3960,1 52659U 22053D   23176.99015745 -.00002360  00000-0 -13027-3 0  9997,2 52659  53.2145 268.0749 0001268  79.3871 280.7264 15.08829806 62124,6917.912,95.438,540.654,538.899,0.0
52659.0,STARLINK-3960,PAYLOAD,2023-06-26 14:04:17,15.08836717,0.0001207,53.2156,265.398,80.333,279.7798,0.00011011,1.465e-05,0.0,0 STARLINK-3960,1 52659U 22053D   23177.58631836  .00001465  00000-0  11011-3 0  9992,2 52659  53.2156 265.3980 0001207  80.3330 279.7798 15.08836717 62217,6917.89,95.438,540.59,538.92,0.0
52659.0,STARLINK-3960,PAYLOAD,2023-06-28 10:35:05,15.0884396,0.0001191,53.2162,257.0706,73.6887,286.4237,0.00019216,2.772e-05,0.0,0 STARLINK-3960,1 52659U 22053D   23179.44103899  .00002772  00000-0  19216-3 0  9999,2 52659  53.2162 257.0706 0001191  73.6887 286.4237 15.08843960 62493,6917.868,95.437,540.557,538.909,0.0
52659.0,STARLINK-3960,PAYLOAD,2023-06-28 21:42:48,15.08833832,0.0001482,53.2162,254.9886,71.0475,289.0677,-5.85e-05,-1.219e-05,0.0,0 STARLINK-3960,1 52659U 22053D   23179.90472244 -.00001219  00000-0 -58500-4 0  9990,2 52659  53.2162 254.9886 0001482  71.0475 289.0677 15.08833832 62568,6917.899,95.438,540.789,538.739,0.0
52659.0,STARLINK-3960,PAYLOAD,2023-06-29 10:25:53,15.08825533,0.0001005,53.216,252.6109,80.6108,279.4998,-0.0001737,-3.05e-05,0.0,0 STARLINK-3960,1 52659U 22053D   23180.43464851 -.00003050  00000-0 -17370-3 0  9999,2 52659  53.2160 252.6109 0001005  80.6108 279.4998 15.08825533 62646,6917.925,95.438,540.485,539.094,0.0
52659.0,STARLINK-3960,PAYLOAD,2023-07-01 11:42:50,15.0884767,8.39e-05,53.2152,243.3931,84.3247,275.7841,0.00037511,5.688e-05,0.0,0 STARLINK-3960,1 52659U 22053D   23182.48808723  .00005688  00000-0  37511-3 0  9992,2 52659  53.2152 243.3931 0000839  84.3247 275.7841 15.08847670 62952,6917.857,95.437,540.302,539.142,0.0
52659.0,STARLINK-3960,PAYLOAD,2023-07-02 09:58:14,15.0884726,8.04e-05,53.2147,239.2301,86.804,273.3044,0.00012196,1.654e-05,0.0,0 STARLINK-3960,1 52659U 22053D   23183.41544370  .00001654  00000-0  12196-3 0  9992,2 52659  53.2147 239.2301 0000804  86.8040 273.3044 15.08847260 63091,6917.858,95.437,540.279,539.167,0.0
52659.0,STARLINK-3960,PAYLOAD,2023-07-03 12:59:47,15.08850166,8.45e-05,53.2147,234.1748,82.429,277.6798,0.00011636,1.565e-05,0.0,0 STARLINK-3960,1 52659U 22053D   23184.54151895  .00001565  00000-0  11636-3 0  9992,2 52659  53.2147 234.1748 0000845  82.4290 277.6798 15.08850166 63265,6917.849,95.437,540.299,539.13,0.0
52659.0,STARLINK-3960,PAYLOAD,2023-07-03 20:56:43,15.08844553,8.29e-05,53.2145,232.6881,80.9208,279.1878,6.0694e-05,6.78e-06,0.0,0 STARLINK-3960,1 52659U 22053D   23184.87272101  .00000678  00000-0  60694-4 0  9995,2 52659  53.2145 232.6881 0000829  80.9208 279.1878 15.08844553 63313,6917.866,95.437,540.305,539.158,0.0
52659.0,STARLINK-3960,PAYLOAD,2023-07-04 09:39:48,15.08839453,8.57e-05,53.2156,230.3086,84.8775,275.2315,9.8967e-06,-1.3e-06,0.0,0 STARLINK-3960,1 52659U 22053D   23185.40264444 -.00000130  00000-0  98967-5 0  9995,2 52659  53.2156 230.3086 0000857  84.8775 275.2315 15.08839453 63394,6917.882,95.438,540.34,539.154,0.0
52659.0,STARLINK-3960,PAYLOAD,2023-07-05 11:05:58,15.08839372,9e-05,53.2162,225.5503,86.4625,273.647,5.562e-06,-1.99e-06,0.0,0 STARLINK-3960,1 52659U 22053D   23186.46248429 -.00000199  00000-0  55620-5 0  9991,2 52659  53.2162 225.5503 0000900  86.4625 273.6470 15.08839372 63554,6917.882,95.438,540.37,539.125,0.0
52659.0,STARLINK-3960,PAYLOAD,2023-07-07 02:50:37,15.08838474,8.44e-05,53.2159,218.1165,83.0399,277.0689,6.1277e-05,6.88e-06,0.0,0 STARLINK-3960,1 52659U 22053D   23188.11848678  .00000688  00000-0  61277-4 0  9993,2 52659  53.2159 218.1165 0000844  83.0399 277.0689 15.08838474 63800,6917.885,95.438,540.334,539.166,0.0
52659.0,STARLINK-3960,PAYLOAD,2023-07-08 07:27:33,15.08838269,8.54e-05,53.2156,212.7631,86.1392,273.9698,4.4913e-05,4.27e-06,0.0,0 STARLINK-3960,1 52659U 22053D   23189.31080893  .00000427  00000-0  44913-4 0  9992,2 52659  53.2156 212.7631 0000854  86.1392 273.9698 15.08838269 63989,6917.886,95.438,540.341,539.16,0.0
52659.0,STARLINK-3960,PAYLOAD,2023-07-09 10:29:07,15.08838188,8.69e-05,53.2155,207.7081,84.5615,275.5476,1.8636e-05,9e-08,0.0,0 STARLINK-3960,1 52659U 22053D   23190.43689091  .00000009  00000-0  18636-4 0  9991,2 52659  53.2155 207.7081 0000869  84.5615 275.5476 15.08838188 64159,6917.886,95.438,540.352,539.15,0.0
52659.0,STARLINK-3960,PAYLOAD,2023-07-10 18:16:49,15.08840749,8.58e-05,53.2154,201.7607,82.1257,277.9832,5.3469e-05,5.63e-06,0.0,0 STARLINK-3960,1 52659U 22053D   23191.76168842  .00000563  00000-0  53469-4 0  9992,2 52659  53.2154 201.7607 0000858  82.1257 277.9832 15.08840749 64350,6917.878,95.438,540.337,539.15,0.0
52659.0,STARLINK-3960,PAYLOAD,2023-07-12 00:29:09,15.08838726,8.83e-05,53.2153,196.1106,81.916,278.1932,1.4461e-05,-5.8e-07,0.0,0 STARLINK-3960,1 52659U 22053D   23193.02025082 -.00000058  00000-0  14461-4 0  9990,2 52659  53.2153 196.1106 0000883  81.9160 278.1932 15.08838726 64545,6917.884,95.438,540.36,539.138,0.0
52659.0,STARLINK-3960,PAYLOAD,2023-07-13 16:13:48,15.08837594,9.11e-05,53.215,188.6766,77.1292,282.9802,1.2932e-05,-8.2e-07,0.0,0 STARLINK-3960,1 52659U 22053D   23194.67625268 -.00000082  00000-0  12932-4 0  9992,2 52659  53.2150 188.6766 0000911  77.1292 282.9802 15.08837594 64793,6917.888,95.438,540.383,539.123,0.0
52659.0,STARLINK-3960,PAYLOAD,2023-07-15 00:01:31,15.08837069,0.0001006,53.2157,182.7298,78.5134,281.5971,3.768e-05,3.12e-06,0.0,0 STARLINK-3960,1 52659U 22053D   23196.00105610  .00000312  00000-0  37680-4 0  9997,2 52659  53.2157 182.7298 0001006  78.5134 281.5971 15.08837069 64992,6917.889,95.438,540.45,539.058,0.0
